start=new Date('2022-06-11T00:00:00.000Z').valueOf();
sats=[{"OBJECT_TYPE":"PAYLOAD","TLE_LINE1":"1 47797U 21018L   22161.68792603  .00000792  00000-0  72093-4 0  9992","OBJECT_NAME":"STARLINK-2377","ECCENTRICITY":"0.00012240","COUNTRY_CODE":"US","BSTAR":"0.00007209300000","LAUNCH_DATE":"2021-03-11","PERIOD":"95.593","NORAD_CAT_ID":"47797","RA_OF_ASC_NODE":"277.8178","OBJECT_ID":"2021-018L","MEAN_MOTION":"15.06394305","RCS_SIZE":"LARGE","EPOCH":"2022-06-10T16:30:36.808992","DECAY_DATE":null,"REV_AT_EPOCH":"7033","CENTER_NAME":"EARTH","TIME_SYSTEM":"UTC","ARG_OF_PERICENTER":"71.8333","GP_ID":"205863683","CLASSIFICATION_TYPE":"U","MEAN_MOTION_DDOT":"0.0000000000000","APOAPSIS":"548.079","SITE":"AFETR","MEAN_ANOMALY":"288.2789","REF_FRAME":"TEME","PERIAPSIS":"546.383","TLE_LINE2":"2 47797  53.0563 277.8178 0001224  71.8333 288.2789 15.06394305 70335","MEAN_MOTION_DOT":"0.00000792","FILE":"3490466","ELEMENT_SET_NO":"999","EPHEMERIS_TYPE":"0","SEMIMAJOR_AXIS":"6925.366","MEAN_ELEMENT_THEORY":"SGP4","INCLINATION":"53.0563"},{"COUNTRY_CODE":"US","TLE_LINE1":"1 47798U 21018M   22161.72894197  .00002571  00000-0  19149-3 0  9998","OBJECT_NAME":"STARLINK-2379","ECCENTRICITY":"0.00017660","OBJECT_TYPE":"PAYLOAD","NORAD_CAT_ID":"47798","PERIOD":"95.592","LAUNCH_DATE":"2021-03-11","BSTAR":"0.00019149000000","MEAN_MOTION":"15.06394904","OBJECT_ID":"2021-018M","RA_OF_ASC_NODE":"252.6453","REV_AT_EPOCH":"7069","TIME_SYSTEM":"UTC","CENTER_NAME":"EARTH","DECAY_DATE":null,"EPOCH":"2022-06-10T17:29:40.586208","RCS_SIZE":"LARGE","CLASSIFICATION_TYPE":"U","GP_ID":"205863934","ARG_OF_PERICENTER":"59.5014","MEAN_ANOMALY":"300.6150","SITE":"AFETR","APOAPSIS":"548.452","MEAN_MOTION_DDOT":"0.0000000000000","ELEMENT_SET_NO":"999","FILE":"3490466","MEAN_MOTION_DOT":"0.00002571","TLE_LINE2":"2 47798  53.0545 252.6453 0001766  59.5014 300.6150 15.06394904 70698","PERIAPSIS":"546.006","REF_FRAME":"TEME","MEAN_ELEMENT_THEORY":"SGP4","INCLINATION":"53.0545","SEMIMAJOR_AXIS":"6925.364","EPHEMERIS_TYPE":"0"},{"MEAN_ELEMENT_THEORY":"SGP4","INCLINATION":"53.0541","EPHEMERIS_TYPE":"0","SEMIMAJOR_AXIS":"6925.331","FILE":"3489795","ELEMENT_SET_NO":"999","TLE_LINE2":"2 47799  53.0541 253.5445 0001650  97.2077 262.9099 15.06405625 70657","MEAN_MOTION_DOT":"-0.00002106","REF_FRAME":"TEME","PERIAPSIS":"546.054","SITE":"AFETR","MEAN_ANOMALY":"262.9099","MEAN_MOTION_DDOT":"0.0000000000000","APOAPSIS":"548.339","CLASSIFICATION_TYPE":"U","GP_ID":"205821949","ARG_OF_PERICENTER":"97.2077","REV_AT_EPOCH":"7065","TIME_SYSTEM":"UTC","CENTER_NAME":"EARTH","EPOCH":"2022-06-10T12:37:44.205312","DECAY_DATE":null,"RCS_SIZE":"LARGE","MEAN_MOTION":"15.06405625","OBJECT_ID":"2021-018N","RA_OF_ASC_NODE":"253.5445","NORAD_CAT_ID":"47799","LAUNCH_DATE":"2021-03-11","PERIOD":"95.592","BSTAR":"-0.00012248000000","COUNTRY_CODE":"US","TLE_LINE1":"1 47799U 21018N   22161.52620608 -.00002106  00000-0 -12248-3 0  9990","OBJECT_NAME":"STARLINK-2380","ECCENTRICITY":"0.00016500","OBJECT_TYPE":"PAYLOAD"},{"COUNTRY_CODE":"US","TLE_LINE1":"1 47800U 21018P   22161.54832375 -.00000431  00000-0 -10062-4 0  9993","ECCENTRICITY":"0.00014920","OBJECT_NAME":"STARLINK-2381","OBJECT_TYPE":"PAYLOAD","NORAD_CAT_ID":"47800","LAUNCH_DATE":"2021-03-11","PERIOD":"95.592","BSTAR":"-0.00001006200000","MEAN_MOTION":"15.06395009","OBJECT_ID":"2021-018P","RA_OF_ASC_NODE":"253.4515","REV_AT_EPOCH":"7066","CENTER_NAME":"EARTH","TIME_SYSTEM":"UTC","DECAY_DATE":null,"EPOCH":"2022-06-10T13:09:35.172000","RCS_SIZE":"LARGE","CLASSIFICATION_TYPE":"U","GP_ID":"205822198","ARG_OF_PERICENTER":"61.5297","MEAN_ANOMALY":"298.5842","SITE":"AFETR","MEAN_MOTION_DDOT":"0.0000000000000","APOAPSIS":"548.262","FILE":"3489795","ELEMENT_SET_NO":"999","TLE_LINE2":"2 47800  53.0548 253.4515 0001492  61.5297 298.5842 15.06395009 70662","MEAN_MOTION_DOT":"-0.00000431","REF_FRAME":"TEME","PERIAPSIS":"546.196","INCLINATION":"53.0548","MEAN_ELEMENT_THEORY":"SGP4","EPHEMERIS_TYPE":"0","SEMIMAJOR_AXIS":"6925.364"},{"ELEMENT_SET_NO":"999","FILE":"3489795","PERIAPSIS":"546.215","REF_FRAME":"TEME","MEAN_MOTION_DOT":"0.00000954","TLE_LINE2":"2 47801  53.0542 258.9595 0001435  65.0143 295.0995 15.06401487 70581","SEMIMAJOR_AXIS":"6925.344","EPHEMERIS_TYPE":"0","MEAN_ELEMENT_THEORY":"SGP4","INCLINATION":"53.0542","GP_ID":"205822450","CLASSIFICATION_TYPE":"U","ARG_OF_PERICENTER":"65.0143","APOAPSIS":"548.203","MEAN_MOTION_DDOT":"0.0000000000000","MEAN_ANOMALY":"295.0995","SITE":"AFETR","OBJECT_ID":"2021-018Q","MEAN_MOTION":"15.06401487","RA_OF_ASC_NODE":"258.9595","DECAY_DATE":null,"EPOCH":"2022-06-10T10:48:16.549056","REV_AT_EPOCH":"7058","CENTER_NAME":"EARTH","TIME_SYSTEM":"UTC","RCS_SIZE":"LARGE","TLE_LINE1":"1 47801U 21018Q   22161.45019154  .00000954  00000-0  82902-4 0  9996","ECCENTRICITY":"0.00014350","OBJECT_NAME":"STARLINK-2382","COUNTRY_CODE":"US","OBJECT_TYPE":"PAYLOAD","NORAD_CAT_ID":"47801","BSTAR":"0.00008290200000","PERIOD":"95.592","LAUNCH_DATE":"2021-03-11"},{"MEAN_ELEMENT_THEORY":"SGP4","INCLINATION":"53.0559","EPHEMERIS_TYPE":"0","SEMIMAJOR_AXIS":"6925.381","TLE_LINE2":"2 47802  53.0559 278.0762 0001287  80.6164 279.4970 15.06389509 70332","MEAN_MOTION_DOT":"-0.00000262","REF_FRAME":"TEME","PERIAPSIS":"546.354","FILE":"3490466","ELEMENT_SET_NO":"999","SITE":"AFETR","MEAN_ANOMALY":"279.4970","MEAN_MOTION_DDOT":"0.0000000000000","APOAPSIS":"548.137","ARG_OF_PERICENTER":"80.6164","CLASSIFICATION_TYPE":"U","GP_ID":"205863435","RCS_SIZE":"LARGE","REV_AT_EPOCH":"7033","CENTER_NAME":"EARTH","TIME_SYSTEM":"UTC","DECAY_DATE":null,"EPOCH":"2022-06-10T15:05:42.317664","RA_OF_ASC_NODE":"278.0762","MEAN_MOTION":"15.06389509","OBJECT_ID":"2021-018R","LAUNCH_DATE":"2021-03-11","PERIOD":"95.593","BSTAR":"0.00000127260000","NORAD_CAT_ID":"47802","OBJECT_TYPE":"PAYLOAD","COUNTRY_CODE":"US","ECCENTRICITY":"0.00012870","TLE_LINE1":"1 47802U 21018R   22161.62896201 -.00000262  00000-0  12726-5 0  9993","OBJECT_NAME":"STARLINK-2383"},{"RCS_SIZE":"LARGE","DECAY_DATE":null,"EPOCH":"2022-06-10T16:36:35.275680","REV_AT_EPOCH":"7068","CENTER_NAME":"EARTH","TIME_SYSTEM":"UTC","RA_OF_ASC_NODE":"252.8083","OBJECT_ID":"2021-018S","MEAN_MOTION":"15.06391322","BSTAR":"-0.00002386200000","PERIOD":"95.593","LAUNCH_DATE":"2021-03-11","NORAD_CAT_ID":"47803","OBJECT_TYPE":"PAYLOAD","TLE_LINE1":"1 47803U 21018S   22161.69207495 -.00000637  00000-0 -23862-4 0  9991","OBJECT_NAME":"STARLINK-2384","ECCENTRICITY":"0.00017040","COUNTRY_CODE":"US","SEMIMAJOR_AXIS":"6925.375","EPHEMERIS_TYPE":"0","MEAN_ELEMENT_THEORY":"SGP4","INCLINATION":"53.0556","REF_FRAME":"TEME","PERIAPSIS":"546.060","MEAN_MOTION_DOT":"-0.00000637","TLE_LINE2":"2 47803  53.0556 252.8083 0001704  55.7465 304.3685 15.06391322 70682","ELEMENT_SET_NO":"999","FILE":"3490466","APOAPSIS":"548.420","MEAN_MOTION_DDOT":"0.0000000000000","SITE":"AFETR","MEAN_ANOMALY":"304.3685","ARG_OF_PERICENTER":"55.7465","GP_ID":"205862184","CLASSIFICATION_TYPE":"U"},{"MEAN_ELEMENT_THEORY":"SGP4","INCLINATION":"53.0547","SEMIMAJOR_AXIS":"6925.346","EPHEMERIS_TYPE":"0","MEAN_MOTION_DOT":"-0.00000025","TLE_LINE2":"2 47804  53.0547 252.7432 0001606  61.0264 299.0886 15.06400674 70682","PERIAPSIS":"546.099","REF_FRAME":"TEME","ELEMENT_SET_NO":"999","FILE":"3490466","SITE":"AFETR","MEAN_ANOMALY":"299.0886","MEAN_MOTION_DDOT":"0.0000000000000","APOAPSIS":"548.324","ARG_OF_PERICENTER":"61.0264","CLASSIFICATION_TYPE":"U","GP_ID":"205862434","RCS_SIZE":"LARGE","REV_AT_EPOCH":"7068","TIME_SYSTEM":"UTC","CENTER_NAME":"EARTH","EPOCH":"2022-06-10T16:57:48.697632","DECAY_DATE":null,"RA_OF_ASC_NODE":"252.7432","MEAN_MOTION":"15.06400674","OBJECT_ID":"2021-018T","PERIOD":"95.592","LAUNCH_DATE":"2021-03-11","BSTAR":"0.00001724000000","NORAD_CAT_ID":"47804","OBJECT_TYPE":"PAYLOAD","COUNTRY_CODE":"US","TLE_LINE1":"1 47804U 21018T   22161.70681363 -.00000025  00000-0  17240-4 0  9997","OBJECT_NAME":"STARLINK-2385","ECCENTRICITY":"0.00016060"},{"OBJECT_TYPE":"PAYLOAD","COUNTRY_CODE":"US","TLE_LINE1":"1 47805U 21018U   22161.73962627  .00119581  00000-0  81997-2 0  9991","OBJECT_NAME":"STARLINK-2386","ECCENTRICITY":"0.00010830","LAUNCH_DATE":"2021-03-11","PERIOD":"95.677","BSTAR":"0.00819970000000","NORAD_CAT_ID":"47805","RA_OF_ASC_NODE":"252.8258","MEAN_MOTION":"15.05070313","OBJECT_ID":"2021-018U","RCS_SIZE":"LARGE","REV_AT_EPOCH":"7069","CENTER_NAME":"EARTH","TIME_SYSTEM":"UTC","DECAY_DATE":null,"EPOCH":"2022-06-10T17:45:03.709728","ARG_OF_PERICENTER":"59.7496","CLASSIFICATION_TYPE":"U","GP_ID":"205863684","SITE":"AFETR","MEAN_ANOMALY":"300.3600","MEAN_MOTION_DDOT":"0.0000000000000","APOAPSIS":"552.042","TLE_LINE2":"2 47805  53.0558 252.8258 0001083  59.7496 300.3600 15.05070313 70695","MEAN_MOTION_DOT":"0.00119581","REF_FRAME":"TEME","PERIAPSIS":"550.541","FILE":"3490466","ELEMENT_SET_NO":"999","MEAN_ELEMENT_THEORY":"SGP4","INCLINATION":"53.0558","EPHEMERIS_TYPE":"0","SEMIMAJOR_AXIS":"6929.427"},{"RCS_SIZE":"LARGE","EPOCH":"2022-06-10T17:51:35.183808","DECAY_DATE":null,"CENTER_NAME":"EARTH","REV_AT_EPOCH":"7054","TIME_SYSTEM":"UTC","RA_OF_ASC_NODE":"267.5775","OBJECT_ID":"2021-018V","MEAN_MOTION":"15.06386761","BSTAR":"-0.00002909200000","LAUNCH_DATE":"2021-03-11","PERIOD":"95.593","NORAD_CAT_ID":"47806","OBJECT_TYPE":"PAYLOAD","ECCENTRICITY":"0.00018040","TLE_LINE1":"1 47806U 21018V   22161.74415722 -.00000715  00000-0 -29092-4 0  9992","OBJECT_NAME":"STARLINK-2387","COUNTRY_CODE":"US","EPHEMERIS_TYPE":"0","SEMIMAJOR_AXIS":"6925.389","MEAN_ELEMENT_THEORY":"SGP4","INCLINATION":"53.0554","PERIAPSIS":"546.005","REF_FRAME":"TEME","TLE_LINE2":"2 47806  53.0554 267.5775 0001804  54.5795 305.5362 15.06386761 70549","MEAN_MOTION_DOT":"-0.00000715","FILE":"3490466","ELEMENT_SET_NO":"999","MEAN_MOTION_DDOT":"0.0000000000000","APOAPSIS":"548.503","MEAN_ANOMALY":"305.5362","SITE":"AFETR","ARG_OF_PERICENTER":"54.5795","GP_ID":"205863935","CLASSIFICATION_TYPE":"U"}];
